{"type": "FeatureCollection", "features": [ {"type": "Feature", "properties": {"norad_id": 66581, "name": "STARLINK-35744", "group": "last-30-days", "lat": 22.18234563027028, "lon": 132.8295817957422, "alt_km": 411.330387230003, "timestamp": "2025-12-15T04:01:19.179809+00:00", "meta": {"OBJECT_NAME": "STARLINK-35744", "OBJECT_ID": "2025-268AA", "EPOCH": "2025-12-14T01:35:53.350080", "MEAN_MOTION": 15.50571375, "ECCENTRICITY": 0.00014263, "INCLINATION": 43.0001, "RA_OF_ASC_NODE": 113.3243, "ARG_OF_PERICENTER": 269.0032, "MEAN_ANOMALY": 91.0665, "EPHEMERIS_TYPE": 0, "CLASSIFICATION_TYPE": "U", "NORAD_CAT_ID": 66581, "ELEMENT_SET_NO": 999, "REV_AT_EPOCH": 483, "BSTAR": 0.0017111745, "MEAN_MOTION_DOT": 0.00101326, "MEAN_MOTION_DDOT": 0}, "tle": {"line1": "1 66581U 25268AA  25348.06658970  .00101326  00000+0  17112-2 0  9998", "line2": "2 66581  43.0001 113.3243 0001426 269.0032  91.0665 15.50571375  4839"}}, "geometry": {"type": "Point", "coordinates": [132.8295817957422, 22.18234563027028]}}, {"type": "Feature", "properties": {"norad_id": 66582, "name": "STARLINK-35746", "group": "last-30-days", "lat": 23.329501499348037, "lon": 134.44547375452296, "alt_km": 411.3509002363653, "timestamp": "2025-12-15T04:01:19.179819+00:00", "meta": {"OBJECT_NAME": "STARLINK-35746", "OBJECT_ID": "2025-268AB", "EPOCH": "2025-12-14T01:35:23.567136", "MEAN_MOTION": 15.50571207, "ECCENTRICITY": 0.00016134, "INCLINATION": 43.0002, "RA_OF_ASC_NODE": 113.3208, "ARG_OF_PERICENTER": 265.7365, "MEAN_ANOMALY": 94.3311, "EPHEMERIS_TYPE": 0, "CLASSIFICATION_TYPE": "U", "NORAD_CAT_ID": 66582, "ELEMENT_SET_NO": 999, "REV_AT_EPOCH": 483, "BSTAR": 0.0015470518, "MEAN_MOTION_DOT": 0.00091458, "MEAN_MOTION_DDOT": 0}, "tle": {"line1": "1 66582U 25268AB  25348.06624499  .00091458  00000+0  15471-2 0  9998", "line2": "2 66582  43.0002 113.3208 0001613 265.7365  94.3311 15.50571207  4830"}}, "geometry": {"type": "Point", "coordinates": [134.44547375452296, 23.329501499348037]}}, {"type": "Feature", "properties": {"norad_id": 66583, "name": "STARLINK-35941", "group": "last-30-days", "lat": 24.45841774029153, "lon": 136.08880173856028, "alt_km": 411.3366158683011, "timestamp": "2025-12-15T04:01:19.179832+00:00", "meta": {"OBJECT_NAME": "STARLINK-35941", "OBJECT_ID": "2025-268AC", "EPOCH": "2025-12-14T01:34:52.816512", "MEAN_MOTION": 15.50541302, "ECCENTRICITY": 0.00014647, "INCLINATION": 43.0001, "RA_OF_ASC_NODE": 113.3183, "ARG_OF_PERICENTER": 256.0512, "MEAN_ANOMALY": 104.0186, "EPHEMERIS_TYPE": 0, "CLASSIFICATION_TYPE": "U", "NORAD_CAT_ID": 66583, "ELEMENT_SET_NO": 999, "REV_AT_EPOCH": 483, "BSTAR": 0.0015935032, "MEAN_MOTION_DOT": 0.00094147, "MEAN_MOTION_DDOT": 0}, "tle": {"line1": "1 66583U 25268AC  25348.06588908  .00094147  00000+0  15935-2 0  9996", "line2": "2 66583  43.0001 113.3183 0001464 256.0512 104.0186 15.50541302  4835"}}, "geometry": {"type": "Point", "coordinates": [136.08880173856028, 24.45841774029153]}}, {"type": "Feature", "properties": {"norad_id": 66584, "name": "STARLINK-35939", "group": "last-30-days", "lat": 25.59325025739891, "lon": 137.79694873997272, "alt_km": 410.64247145422905, "timestamp": "2025-12-15T04:01:19.179842+00:00", "meta": {"OBJECT_NAME": "STARLINK-35939", "OBJECT_ID": "2025-268AD", "EPOCH": "2025-12-14T01:34:24.553344", "MEAN_MOTION": 15.50564169, "ECCENTRICITY": 0.00013367, "INCLINATION": 42.9998, "RA_OF_ASC_NODE": 113.3141, "ARG_OF_PERICENTER": 287.5343, "MEAN_ANOMALY": 72.5371, "EPHEMERIS_TYPE": 0, "CLASSIFICATION_TYPE": "U", "NORAD_CAT_ID": 66584, "ELEMENT_SET_NO": 999, "REV_AT_EPOCH": 483, "BSTAR": 0.001585673, "MEAN_MOTION_DOT": 0.00093754, "MEAN_MOTION_DDOT": 0}, "tle": {"line1": "1 66584U 25268AD  25348.06556196  .00093754  00000+0  15857-2 0  9997", "line2": "2 66584  42.9998 113.3141 0001336 287.5343  72.5371 15.50564169  4833"}}, "geometry": {"type": "Point", "coordinates": [137.79694873997272, 25.59325025739891]}}, {"type": "Feature", "properties": {"norad_id": 66585, "name": "STARLINK-35963", "group": "last-30-days", "lat": 26.702051720018392, "lon": 139.53045204082255, "alt_km": 410.6245526535904, "timestamp": "2025-12-15T04:01:19.179854+00:00", "meta": {"OBJECT_NAME": "STARLINK-35963", "OBJECT_ID": "2025-268AE", "EPOCH": "2025-12-14T01:33:54.771264", "MEAN_MOTION": 15.50567284, "ECCENTRICITY": 0.00014111, "INCLINATION": 42.9996, "RA_OF_ASC_NODE": 113.3117, "ARG_OF_PERICENTER": 281.6318, "MEAN_ANOMALY": 78.4384, "EPHEMERIS_TYPE": 0, "CLASSIFICATION_TYPE": "U", "NORAD_CAT_ID": 66585, "ELEMENT_SET_NO": 999, "REV_AT_EPOCH": 483, "BSTAR": 0.0014844244, "MEAN_MOTION_DOT": 0.00087687, "MEAN_MOTION_DDOT": 0}, "tle": {"line1": "1 66585U 25268AE  25348.06521726  .00087687  00000+0  14844-2 0  9992", "line2": "2 66585  42.9996 113.3117 0001411 281.6318  78.4384 15.50567284  4836"}}, "geometry": {"type": "Point", "coordinates": [139.53045204082255, 26.702051720018392]}}, {"type": "Feature", "properties": {"norad_id": 66586, "name": "TJS-21", "group": "last-30-days", "lat": -3.0815424936317513, "lon": -16.37024079037353, "alt_km": 7294.285210946554, "timestamp": "2025-12-15T04:01:19.179867+00:00", "meta": {"OBJECT_NAME": "TJS-21", "OBJECT_ID": "2025-269A", "EPOCH": "2025-12-10T17:31:22.184832", "MEAN_MOTION": 2.00567425, "ECCENTRICITY": 0.6805766, "INCLINATION": 63.269, "RA_OF_ASC_NODE": 162.5612, "ARG_OF_PERICENTER": 269.7806, "MEAN_ANOMALY": 18.6565, "EPHEMERIS_TYPE": 0, "CLASSIFICATION_TYPE": "U", "NORAD_CAT_ID": 66586, "ELEMENT_SET_NO": 999, "REV_AT_EPOCH": 39, "BSTAR": -0.044965385, "MEAN_MOTION_DOT": 1.083e-05, "MEAN_MOTION_DDOT": 0}, "tle": {"line1": "1 66586U 25269A   25344.73011788  .00001083  00000+0 -44965-1 0  9999", "line2": "2 66586  63.2690 162.5612 6805766 269.7806  18.6565  2.00567425   392"}}, "geometry": {"type": "Point", "coordinates": [-16.37024079037353, -3.0815424936317513]}}, {"type": "Feature", "properties": {"norad_id": 66587, "name": "CZ-3B R/B", "group": "last-30-days", "lat": 36.73955257351153, "lon": -47.77778746973901, "alt_km": 6640.613700993646, "timestamp": "2025-12-15T04:01:19.179882+00:00", "meta": {"OBJECT_NAME": "CZ-3B R/B", "OBJECT_ID": "2025-269B", "EPOCH": "2025-12-12T18:47:24.789120", "MEAN_MOTION": 2.03336189, "ECCENTRICITY": 0.7518951, "INCLINATION": 51.347, "RA_OF_ASC_NODE": 169.6347, "ARG_OF_PERICENTER": 228.7177, "MEAN_ANOMALY": 37.1847, "EPHEMERIS_TYPE": 0, "CLASSIFICATION_TYPE": "U", "NORAD_CAT_ID": 66587, "ELEMENT_SET_NO": 999, "REV_AT_EPOCH": 45, "BSTAR": 0.00096662605, "MEAN_MOTION_DOT": 0.00067576, "MEAN_MOTION_DDOT": 1.09445e-06}, "tle": {"line1": "1 66587U 25269B   25346.78292580  .00067576  10944-5  96663-3 0  9994", "line2": "2 66587  51.3470 169.6347 7518951 228.7177  37.1847  2.03336189   454"}}, "geometry": {"type": "Point", "coordinates": [-47.77778746973901, 36.73955257351153]}}, {"type": "Feature", "properties": {"norad_id": 66588, "name": "STARLINK-36076", "group": "last-30-days", "lat": 3.9081711926690277, "lon": -5.4205194905699825, "alt_km": 442.9829456485859, "timestamp": "2025-12-15T04:01:19.179895+00:00", "meta": {"OBJECT_NAME": "STARLINK-36076", "OBJECT_ID": "2025-270A", "EPOCH": "2025-12-14T06:00:02.999808", "MEAN_MOTION": 15.40690335, "ECCENTRICITY": 0.00017229, "INCLINATION": 42.9997, "RA_OF_ASC_NODE": 184.0725, "ARG_OF_PERICENTER": 243.0212, "MEAN_ANOMALY": 235.9414, "EPHEMERIS_TYPE": 0, "CLASSIFICATION_TYPE": "U", "NORAD_CAT_ID": 66588, "ELEMENT_SET_NO": 999, "REV_AT_EPOCH": 464, "BSTAR": 0.0001398571, "MEAN_MOTION_DOT": 5.541e-05, "MEAN_MOTION_DDOT": 0}, "tle": {"line1": "1 66588U 25270A   25348.25003472  .00005541  00000+0  13986-3 0  9998", "line2": "2 66588  42.9997 184.0725 0001722 243.0212 235.9414 15.40690335  4646"}}, "geometry": {"type": "Point", "coordinates": [-5.4205194905699825, 3.9081711926690277]}}, {"type": "Feature", "properties": {"norad_id": 66589, "name": "STARLINK-35447", "group": "last-30-days", "lat": -42.44403336723619, "lon": 99.58829362674959, "alt_km": 419.0112938659104, "timestamp": "2025-12-15T04:01:19.179905+00:00", "meta": {"OBJECT_NAME": "STARLINK-35447", "OBJECT_ID": "2025-270B", "EPOCH": "2025-12-14T00:32:26.215296", "MEAN_MOTION": 15.50334967, "ECCENTRICITY": 0.00011654, "INCLINATION": 42.9995, "RA_OF_ASC_NODE": 185.2277, "ARG_OF_PERICENTER": 309.7204, "MEAN_ANOMALY": 50.3553, "EPHEMERIS_TYPE": 0, "CLASSIFICATION_TYPE": "U", "NORAD_CAT_ID": 66589, "ELEMENT_SET_NO": 999, "REV_AT_EPOCH": 465, "BSTAR": -0.0013753722, "MEAN_MOTION_DOT": -0.00079519, "MEAN_MOTION_DDOT": 0}, "tle": {"line1": "1 66589U 25270B   25348.02252564 -.00079519  00000+0 -13754-2 0  9992", "line2": "2 66589  42.9995 185.2277 0001165 309.7204  50.3553 15.50334967  4653"}}, "geometry": {"type": "Point", "coordinates": [99.58829362674959, -42.44403336723619]}}, {"type": "Feature", "properties": {"norad_id": 66590, "name": "STARLINK-35429", "group": "last-30-days", "lat": -42.44777945758769, "lon": 99.54875879247878, "alt_km": 416.7627160098282, "timestamp": "2025-12-15T04:01:19.179918+00:00", "meta": {"OBJECT_NAME": "STARLINK-35429", "OBJECT_ID": "2025-270C", "EPOCH": "2025-12-14T00:32:52.784160", "MEAN_MOTION": 15.50571403, "ECCENTRICITY": 0.00017382, "INCLINATION": 42.9994, "RA_OF_ASC_NODE": 185.2302, "ARG_OF_PERICENTER": 269.5857, "MEAN_ANOMALY": 90.4804, "EPHEMERIS_TYPE": 0, "CLASSIFICATION_TYPE": "U", "NORAD_CAT_ID": 66590, "ELEMENT_SET_NO": 999, "REV_AT_EPOCH": 465, "BSTAR": 0.0012042426, "MEAN_MOTION_DOT": 0.0007093, "MEAN_MOTION_DDOT": 0}, "tle": {"line1": "1 66590U 25270C   25348.02283315  .00070930  00000+0  12042-2 0  9997", "line2": "2 66590  42.9994 185.2302 0001738 269.5857  90.4804 15.50571403  4658"}}, "geometry": {"type": "Point", "coordinates": [99.54875879247878, -42.44777945758769]}}]}